[{"OBJECT_NAME":"FLOCK 4H-17","OBJECT_ID":"2025-276BG","EPOCH":"2026-03-09T12:13:32.774304","MEAN_MOTION":15.19779499,"ECCENTRICITY":0.00021349,"INCLINATION":97.4298,"RA_OF_ASC_NODE":143.9091,"ARG_OF_PERICENTER":323.7123,"MEAN_ANOMALY":36.3967,"EPHEMERIS_TYPE":0,"CLASSIFICATION_TYPE":"U","NORAD_CAT_ID":66720,"ELEMENT_SET_NO":999,"REV_AT_EPOCH":1529,"BSTAR":0.00077231718,"MEAN_MOTION_DOT":0.00016485,"MEAN_MOTION_DDOT":0},{"OBJECT_NAME":"OPS 8737","OBJECT_ID":"1984-012A","EPOCH":"2026-03-09T10:24:59.103360","MEAN_MOTION":14.13401649,"ECCENTRICITY":0.06371464,"INCLINATION":63.2981,"RA_OF_ASC_NODE":74.2458,"ARG_OF_PERICENTER":123.1893,"MEAN_ANOMALY":243.1939,"EPHEMERIS_TYPE":0,"CLASSIFICATION_TYPE":"U","NORAD_CAT_ID":14690,"ELEMENT_SET_NO":999,"REV_AT_EPOCH":9385,"BSTAR":0.00047042686,"MEAN_MOTION_DOT":6.85e-5,"MEAN_MOTION_DDOT":0}]
